{
  "type": "FeatureCollection",
  "features": [
    {
      "type": "Feature",
      "properties": {
        "norad_id": 33679,
        "name": "FENGYUN 1C DEB",
        "group": "fengyun-1c-debris",
        "lat": -23.013560934998843,
        "lon": -128.27467583879599,
        "alt_km": 562.6713500293117,
        "timestamp": "2025-12-14T16:47:40.970481+00:00",
        "meta_object_name": "FENGYUN 1C DEB",
        "meta_object_id": "1999-025DFQ",
        "meta_epoch": "2025-12-13T11:06:48.969792",
        "meta_mean_motion": 15.026568,
        "meta_eccentricity": 0.01483147,
        "meta_inclination": 99.3525,
        "meta_ra_of_asc_node": 54.2486,
        "meta_arg_of_pericenter": 297.3985,
        "meta_mean_anomaly": 61.2211,
        "meta_ephemeris_type": 0,
        "meta_classification_type": "U",
        "meta_norad_cat_id": 33679,
        "meta_element_set_no": 999,
        "meta_rev_at_epoch": 94134,
        "meta_bstar": 0.0022719782,
        "meta_mean_motion_dot": 0.00038602,
        "meta_mean_motion_ddot": 0,
        "tle_line1": "1 33679U 99025DFQ 25347.46306678  .00038602  00000+0  22720-2 0  9997",
        "tle_line2": "2 33679  99.3525  54.2486 0148314 297.3985  61.2211 15.02656800941343"
      },
      "geometry": {
        "type": "Point",
        "coordinates": [
          -128.27467583879599,
          -23.013560934998843
        ]
      }
    },
    {
      "type": "Feature",
      "properties": {
        "norad_id": 33682,
        "name": "FENGYUN 1C DEB",
        "group": "fengyun-1c-debris",
        "lat": -16.316936744841147,
        "lon": -147.35820840535004,
        "alt_km": 817.6220830412058,
        "timestamp": "2025-12-14T16:47:40.970492+00:00",
        "meta_object_name": "FENGYUN 1C DEB",
        "meta_object_id": "1999-025DFT",
        "meta_epoch": "2025-12-11T02:02:18.614688",
        "meta_mean_motion": 14.26660896,
        "meta_eccentricity": 0.00288154,
        "meta_inclination": 99.4208,
        "meta_ra_of_asc_node": 31.5402,
        "meta_arg_of_pericenter": 87.4538,
        "meta_mean_anomaly": 272.9938,
        "meta_ephemeris_type": 0,
        "meta_classification_type": "U",
        "meta_norad_cat_id": 33682,
        "meta_element_set_no": 999,
        "meta_rev_at_epoch": 91674,
        "meta_bstar": 0.0020918162,
        "meta_mean_motion_dot": 5.031e-05,
        "meta_mean_motion_ddot": 0,
        "tle_line1": "1 33682U 99025DFT 25345.08493767  .00005031  00000+0  20918-2 0  9990",
        "tle_line2": "2 33682  99.4208  31.5402 0028815  87.4538 272.9938 14.26660896916745"
      },
      "geometry": {
        "type": "Point",
        "coordinates": [
          -147.35820840535004,
          -16.316936744841147
        ]
      }
    },
    {
      "type": "Feature",
      "properties": {
        "norad_id": 33684,
        "name": "FENGYUN 1C DEB",
        "group": "fengyun-1c-debris",
        "lat": 30.83053461402712,
        "lon": -130.01703269856708,
        "alt_km": 850.1505998368048,
        "timestamp": "2025-12-14T16:47:40.970502+00:00",
        "meta_object_name": "FENGYUN 1C DEB",
        "meta_object_id": "1999-025DFV",
        "meta_epoch": "2025-12-13T23:49:00.638400",
        "meta_mean_motion": 14.73149672,
        "meta_eccentricity": 0.02872912,
        "meta_inclination": 99.0658,
        "meta_ra_of_asc_node": 43.7241,
        "meta_arg_of_pericenter": 336.6485,
        "meta_mean_anomaly": 22.1882,
        "meta_ephemeris_type": 0,
        "meta_classification_type": "U",
        "meta_norad_cat_id": 33684,
        "meta_element_set_no": 999,
        "meta_rev_at_epoch": 93007,
        "meta_bstar": 0.00092181897,
        "meta_mean_motion_dot": 0.00011484,
        "meta_mean_motion_ddot": 0,
        "tle_line1": "1 33684U 99025DFV 25347.99236850  .00011484  00000+0  92182-3 0  9994",
        "tle_line2": "2 33684  99.0658  43.7241 0287291 336.6485  22.1882 14.73149672930074"
      },
      "geometry": {
        "type": "Point",
        "coordinates": [
          -130.01703269856708,
          30.83053461402712
        ]
      }
    },
    {
      "type": "Feature",
      "properties": {
        "norad_id": 33687,
        "name": "FENGYUN 1C DEB",
        "group": "fengyun-1c-debris",
        "lat": -75.56043336593768,
        "lon": 136.82262675838064,
        "alt_km": 490.09089014797246,
        "timestamp": "2025-12-14T16:47:40.970512+00:00",
        "meta_object_name": "FENGYUN 1C DEB",
        "meta_object_id": "1999-025DFY",
        "meta_epoch": "2025-12-10T18:21:11.232576",
        "meta_mean_motion": 15.18394694,
        "meta_eccentricity": 0.01162924,
        "meta_inclination": 98.9979,
        "meta_ra_of_asc_node": 350.1242,
        "meta_arg_of_pericenter": 343.0209,
        "meta_mean_anomaly": 16.7142,
        "meta_ephemeris_type": 0,
        "meta_classification_type": "U",
        "meta_norad_cat_id": 33687,
        "meta_element_set_no": 999,
        "meta_rev_at_epoch": 71478,
        "meta_bstar": 0.0024359908,
        "meta_mean_motion_dot": 0.0006019,
        "meta_mean_motion_ddot": 0,
        "tle_line1": "1 33687U 99025DFY 25344.76471334  .00060190  00000+0  24360-2 0  9997",
        "tle_line2": "2 33687  98.9979 350.1242 0116292 343.0209  16.7142 15.18394694714787"
      },
      "geometry": {
        "type": "Point",
        "coordinates": [
          136.82262675838064,
          -75.56043336593768
        ]
      }
    },
    {
      "type": "Feature",
      "properties": {
        "norad_id": 33688,
        "name": "FENGYUN 1C DEB",
        "group": "fengyun-1c-debris",
        "lat": -69.4397684309756,
        "lon": -115.77394134074538,
        "alt_km": 709.0026391885785,
        "timestamp": "2025-12-14T16:47:40.970521+00:00",
        "meta_object_name": "FENGYUN 1C DEB",
        "meta_object_id": "1999-025DFZ",
        "meta_epoch": "2025-12-13T13:03:13.087008",
        "meta_mean_motion": 14.45620497,
        "meta_eccentricity": 0.00538014,
        "meta_inclination": 99.3497,
        "meta_ra_of_asc_node": 89.0096,
        "meta_arg_of_pericenter": 260.4671,
        "meta_mean_anomaly": 99.0435,
        "meta_ephemeris_type": 0,
        "meta_classification_type": "U",
        "meta_norad_cat_id": 33688,
        "meta_element_set_no": 999,
        "meta_rev_at_epoch": 91493,
        "meta_bstar": 0.003412042,
        "meta_mean_motion_dot": 0.00012244,
        "meta_mean_motion_ddot": 0,
        "tle_line1": "1 33688U 99025DFZ 25347.54390147  .00012244  00000+0  34120-2 0  9991",
        "tle_line2": "2 33688  99.3497  89.0096 0053801 260.4671  99.0435 14.45620497914934"
      },
      "geometry": {
        "type": "Point",
        "coordinates": [
          -115.77394134074538,
          -69.4397684309756
        ]
      }
    },
    {
      "type": "Feature",
      "properties": {
        "norad_id": 33689,
        "name": "FENGYUN 1C DEB",
        "group": "fengyun-1c-debris",
        "lat": -72.81026185463504,
        "lon": 29.292483809707182,
        "alt_km": 774.2555278220998,
        "timestamp": "2025-12-14T16:47:40.970531+00:00",
        "meta_object_name": "FENGYUN 1C DEB",
        "meta_object_id": "1999-025DGA",
        "meta_epoch": "2025-12-07T05:58:19.079616",
        "meta_mean_motion": 14.45083851,
        "meta_eccentricity": 0.00480135,
        "meta_inclination": 99.5648,
        "meta_ra_of_asc_node": 347.8823,
        "meta_arg_of_pericenter": 167.5369,
        "meta_mean_anomaly": 254.9476,
        "meta_ephemeris_type": 0,
        "meta_classification_type": "U",
        "meta_norad_cat_id": 33689,
        "meta_element_set_no": 999,
        "meta_rev_at_epoch": 69451,
        "meta_bstar": 0.0017194976,
        "meta_mean_motion_dot": 6.046e-05,
        "meta_mean_motion_ddot": 0,
        "tle_line1": "1 33689U 99025DGA 25341.24883194  .00006046  00000+0  17195-2 0  9998",
        "tle_line2": "2 33689  99.5648 347.8823 0048013 167.5369 254.9476 14.45083851694511"
      },
      "geometry": {
        "type": "Point",
        "coordinates": [
          29.292483809707182,
          -72.81026185463504
        ]
      }
    },
    {
      "type": "Feature",
      "properties": {
        "norad_id": 33690,
        "name": "FENGYUN 1C DEB",
        "group": "fengyun-1c-debris",
        "lat": -33.62847362788483,
        "lon": 92.89797242313954,
        "alt_km": 722.2619198392013,
        "timestamp": "2025-12-14T16:47:40.970541+00:00",
        "meta_object_name": "FENGYUN 1C DEB",
        "meta_object_id": "1999-025DGB",
        "meta_epoch": "2025-12-12T05:23:26.598624",
        "meta_mean_motion": 14.51441584,
        "meta_eccentricity": 0.00304597,
        "meta_inclination": 98.6124,
        "meta_ra_of_asc_node": 84.5776,
        "meta_arg_of_pericenter": 51.4058,
        "meta_mean_anomaly": 308.9857,
        "meta_ephemeris_type": 0,
        "meta_classification_type": "U",
        "meta_norad_cat_id": 33690,
        "meta_element_set_no": 999,
        "meta_rev_at_epoch": 93212,
        "meta_bstar": 0.0033928677,
        "meta_mean_motion_dot": 0.00013604,
        "meta_mean_motion_ddot": 0,
        "tle_line1": "1 33690U 99025DGB 25346.22461341  .00013604  00000+0  33929-2 0  9990",
        "tle_line2": "2 33690  98.6124  84.5776 0030459  51.4058 308.9857 14.51441584932128"
      },
      "geometry": {
        "type": "Point",
        "coordinates": [
          92.89797242313954,
          -33.62847362788483
        ]
      }
    }
  ]
}